[{"OBJECT_NAME":"STARLINK-33797","OBJECT_ID":"2025-069R","EPOCH":"2026-03-09T11:16:23.053728","MEAN_MOTION":15.30232262,"ECCENTRICITY":0.00013127,"INCLINATION":53.1596,"RA_OF_ASC_NODE":143.3135,"ARG_OF_PERICENTER":99.1189,"MEAN_ANOMALY":260.996,"EPHEMERIS_TYPE":0,"CLASSIFICATION_TYPE":"U","NORAD_CAT_ID":63448,"ELEMENT_SET_NO":999,"REV_AT_EPOCH":5332,"BSTAR":0.001132807,"MEAN_MOTION_DOT":0.00033376,"MEAN_MOTION_DDOT":0},{"OBJECT_NAME":"GEOSCAN 6 (RS92S6)","OBJECT_ID":"2025-155D","EPOCH":"2026-03-09T21:52:39.201312","MEAN_MOTION":15.27985277,"ECCENTRICITY":0.00087677,"INCLINATION":97.4466,"RA_OF_ASC_NODE":37.2933,"ARG_OF_PERICENTER":153.7679,"MEAN_ANOMALY":206.4006,"EPHEMERIS_TYPE":0,"CLASSIFICATION_TYPE":"U","NORAD_CAT_ID":64879,"ELEMENT_SET_NO":999,"REV_AT_EPOCH":6559,"BSTAR":0.00053762354,"MEAN_MOTION_DOT":0.00014633,"MEAN_MOTION_DDOT":0}]
